{
  "type": "FeatureCollection",
  "features": [
    {
      "type": "Feature",
      "properties": {
        "norad_id": 29887,
        "name": "FENGYUN 1C DEB",
        "group": "fengyun-1c-debris",
        "lat": 73.7350640869993,
        "lon": 45.12341604350792,
        "alt_km": 809.1360490364414,
        "timestamp": "2025-12-21T03:56:51.108630+00:00",
        "meta_object_name": "FENGYUN 1C DEB",
        "meta_object_id": "1999-025GH",
        "meta_epoch": "2025-12-20T04:25:56.133408",
        "meta_mean_motion": 14.33738506,
        "meta_eccentricity": 0.02865575,
        "meta_inclination": 98.7178,
        "meta_ra_of_asc_node": 75.8646,
        "meta_arg_of_pericenter": 337.1407,
        "meta_mean_anomaly": 81.5503,
        "meta_ephemeris_type": 0,
        "meta_classification_type": "U",
        "meta_norad_cat_id": 29887,
        "meta_element_set_no": 999,
        "meta_rev_at_epoch": 98081,
        "meta_bstar": 0.0003516452,
        "meta_mean_motion_dot": 1.489e-05,
        "meta_mean_motion_ddot": 0,
        "tle_line1": "1 29887U 99025GH  25354.18467747  .00001489  00000+0  35165-3 0  9996",
        "tle_line2": "2 29887  98.7178  75.8646 0286557 337.1407  81.5503 14.33738506980818"
      },
      "geometry": {
        "type": "Point",
        "coordinates": [
          45.12341604350792,
          73.7350640869993
        ]
      }
    },
    {
      "type": "Feature",
      "properties": {
        "norad_id": 29888,
        "name": "FENGYUN 1C DEB",
        "group": "fengyun-1c-debris",
        "lat": 79.26620809250731,
        "lon": 66.87252645065523,
        "alt_km": 827.1659108178455,
        "timestamp": "2025-12-21T03:56:51.108640+00:00",
        "meta_object_name": "FENGYUN 1C DEB",
        "meta_object_id": "1999-025GJ",
        "meta_epoch": "2025-12-20T10:36:09.048960",
        "meta_mean_motion": 14.19871953,
        "meta_eccentricity": 0.02747676,
        "meta_inclination": 99.1913,
        "meta_ra_of_asc_node": 187.4572,
        "meta_arg_of_pericenter": 3.4867,
        "meta_mean_anomaly": 356.8141,
        "meta_ephemeris_type": 0,
        "meta_classification_type": "U",
        "meta_norad_cat_id": 29888,
        "meta_element_set_no": 999,
        "meta_rev_at_epoch": 97613,
        "meta_bstar": 0.00026703258,
        "meta_mean_motion_dot": 7.72e-06,
        "meta_mean_motion_ddot": 0,
        "tle_line1": "1 29888U 99025GJ  25354.44177140  .00000772  00000+0  26703-3 0  9993",
        "tle_line2": "2 29888  99.1913 187.4572 0274767   3.4867 356.8141 14.19871953976136"
      },
      "geometry": {
        "type": "Point",
        "coordinates": [
          66.87252645065523,
          79.26620809250731
        ]
      }
    },
    {
      "type": "Feature",
      "properties": {
        "norad_id": 29889,
        "name": "FENGYUN 1C DEB",
        "group": "fengyun-1c-debris",
        "lat": -17.87883143942855,
        "lon": 116.1476348856452,
        "alt_km": 759.0389898653275,
        "timestamp": "2025-12-21T03:56:51.108649+00:00",
        "meta_object_name": "FENGYUN 1C DEB",
        "meta_object_id": "1999-025GK",
        "meta_epoch": "2025-12-20T20:08:47.458752",
        "meta_mean_motion": 14.13520054,
        "meta_eccentricity": 0.0154151,
        "meta_inclination": 99.4773,
        "meta_ra_of_asc_node": 112.7145,
        "meta_arg_of_pericenter": 16.5869,
        "meta_mean_anomaly": 113.2358,
        "meta_ephemeris_type": 0,
        "meta_classification_type": "U",
        "meta_norad_cat_id": 29889,
        "meta_element_set_no": 999,
        "meta_rev_at_epoch": 97433,
        "meta_bstar": 0.00019309,
        "meta_mean_motion_dot": 3.58e-06,
        "meta_mean_motion_ddot": 0,
        "tle_line1": "1 29889U 99025GK  25354.83943818  .00000358  00000+0  19309-3 0  9994",
        "tle_line2": "2 29889  99.4773 112.7145 0154151  16.5869 113.2358 14.13520054974334"
      },
      "geometry": {
        "type": "Point",
        "coordinates": [
          116.1476348856452,
          -17.87883143942855
        ]
      }
    },
    {
      "type": "Feature",
      "properties": {
        "norad_id": 29890,
        "name": "FENGYUN 1C DEB",
        "group": "fengyun-1c-debris",
        "lat": 43.74761126494148,
        "lon": -53.49175284382731,
        "alt_km": 810.3817795826835,
        "timestamp": "2025-12-21T03:56:51.108658+00:00",
        "meta_object_name": "FENGYUN 1C DEB",
        "meta_object_id": "1999-025GL",
        "meta_epoch": "2025-12-20T07:03:56.037312",
        "meta_mean_motion": 14.23062938,
        "meta_eccentricity": 0.00145161,
        "meta_inclination": 99.4686,
        "meta_ra_of_asc_node": 116.3813,
        "meta_arg_of_pericenter": 52.6324,
        "meta_mean_anomaly": 307.6171,
        "meta_ephemeris_type": 0,
        "meta_classification_type": "U",
        "meta_norad_cat_id": 29890,
        "meta_element_set_no": 999,
        "meta_rev_at_epoch": 97558,
        "meta_bstar": 0.00061124814,
        "meta_mean_motion_dot": 1.33e-05,
        "meta_mean_motion_ddot": 0,
        "tle_line1": "1 29890U 99025GL  25354.29439858  .00001330  00000+0  61125-3 0  9994",
        "tle_line2": "2 29890  99.4686 116.3813 0014516  52.6324 307.6171 14.23062938975581"
      },
      "geometry": {
        "type": "Point",
        "coordinates": [
          -53.49175284382731,
          43.74761126494148
        ]
      }
    },
    {
      "type": "Feature",
      "properties": {
        "norad_id": 29891,
        "name": "FENGYUN 1C DEB",
        "group": "fengyun-1c-debris",
        "lat": 77.65461833511488,
        "lon": -47.6671424491037,
        "alt_km": 926.7955398073564,
        "timestamp": "2025-12-21T03:56:51.108668+00:00",
        "meta_object_name": "FENGYUN 1C DEB",
        "meta_object_id": "1999-025GM",
        "meta_epoch": "2025-12-20T19:34:54.254208",
        "meta_mean_motion": 14.00008431,
        "meta_eccentricity": 0.0061077,
        "meta_inclination": 98.7268,
        "meta_ra_of_asc_node": 356.5707,
        "meta_arg_of_pericenter": 237.6095,
        "meta_mean_anomaly": 248.0818,
        "meta_ephemeris_type": 0,
        "meta_classification_type": "U",
        "meta_norad_cat_id": 29891,
        "meta_element_set_no": 999,
        "meta_rev_at_epoch": 96601,
        "meta_bstar": 0.00045109,
        "meta_mean_motion_dot": 6.32e-06,
        "meta_mean_motion_ddot": 0,
        "tle_line1": "1 29891U 99025GM  25354.81590572  .00000632  00000+0  45109-3 0  9992",
        "tle_line2": "2 29891  98.7268 356.5707 0061077 237.6095 248.0818 14.00008431966011"
      },
      "geometry": {
        "type": "Point",
        "coordinates": [
          -47.6671424491037,
          77.65461833511488
        ]
      }
    },
    {
      "type": "Feature",
      "properties": {
        "norad_id": 29892,
        "name": "FENGYUN 1C DEB",
        "group": "fengyun-1c-debris",
        "lat": 30.65532561550756,
        "lon": 137.70714022923735,
        "alt_km": 845.1900827700447,
        "timestamp": "2025-12-21T03:56:51.108678+00:00",
        "meta_object_name": "FENGYUN 1C DEB",
        "meta_object_id": "1999-025GN",
        "meta_epoch": "2025-12-20T09:37:06.482208",
        "meta_mean_motion": 14.32322621,
        "meta_eccentricity": 0.01920639,
        "meta_inclination": 99.1804,
        "meta_ra_of_asc_node": 142.3989,
        "meta_arg_of_pericenter": 275.2021,
        "meta_mean_anomaly": 138.2675,
        "meta_ephemeris_type": 0,
        "meta_classification_type": "U",
        "meta_norad_cat_id": 29892,
        "meta_element_set_no": 999,
        "meta_rev_at_epoch": 96759,
        "meta_bstar": 0.002228205,
        "meta_mean_motion_dot": 7.331e-05,
        "meta_mean_motion_ddot": 0,
        "tle_line1": "1 29892U 99025GN  25354.40076947  .00007331  00000+0  22282-2 0  9992",
        "tle_line2": "2 29892  99.1804 142.3989 0192063 275.2021 138.2675 14.32322621967593"
      },
      "geometry": {
        "type": "Point",
        "coordinates": [
          137.70714022923735,
          30.65532561550756
        ]
      }
    },
    {
      "type": "Feature",
      "properties": {
        "norad_id": 29893,
        "name": "FENGYUN 1C DEB",
        "group": "fengyun-1c-debris",
        "lat": -8.521052494269727,
        "lon": 91.71303801629365,
        "alt_km": 1065.4480112292076,
        "timestamp": "2025-12-21T03:56:51.108688+00:00",
        "meta_object_name": "FENGYUN 1C DEB",
        "meta_object_id": "1999-025GP",
        "meta_epoch": "2025-12-20T18:10:04.533024",
        "meta_mean_motion": 13.79464985,
        "meta_eccentricity": 0.0173904,
        "meta_inclination": 98.5532,
        "meta_ra_of_asc_node": 90.0527,
        "meta_arg_of_pericenter": 131.8119,
        "meta_mean_anomaly": 358.5095,
        "meta_ephemeris_type": 0,
        "meta_classification_type": "U",
        "meta_norad_cat_id": 29893,
        "meta_element_set_no": 999,
        "meta_rev_at_epoch": 95250,
        "meta_bstar": 0.00014773,
        "meta_mean_motion_dot": 1.34e-06,
        "meta_mean_motion_ddot": 0,
        "tle_line1": "1 29893U 99025GP  25354.75699691  .00000134  00000+0  14773-3 0  9999",
        "tle_line2": "2 29893  98.5532  90.0527 0173904 131.8119 358.5095 13.79464985952508"
      },
      "geometry": {
        "type": "Point",
        "coordinates": [
          91.71303801629365,
          -8.521052494269727
        ]
      }
    }
  ]
}